[{"OBJECT_NAME":"SUPERVIEW-1 03","OBJECT_ID":"2018-002A","EPOCH":"2026-03-09T22:14:33.880992","MEAN_MOTION":15.35916978,"ECCENTRICITY":0.00509393,"INCLINATION":97.3162,"RA_OF_ASC_NODE":154.1458,"ARG_OF_PERICENTER":177.0269,"MEAN_ANOMALY":183.1288,"EPHEMERIS_TYPE":0,"CLASSIFICATION_TYPE":"U","NORAD_CAT_ID":43099,"ELEMENT_SET_NO":999,"REV_AT_EPOCH":45311,"BSTAR":0.00062641306,"MEAN_MOTION_DOT":0.00022818,"MEAN_MOTION_DDOT":0},{"OBJECT_NAME":"STARLINK-31515","OBJECT_ID":"2024-068X","EPOCH":"2026-03-09T07:14:07.901376","MEAN_MOTION":15.27574601,"ECCENTRICITY":0.00011981,"INCLINATION":43.0066,"RA_OF_ASC_NODE":36.6784,"ARG_OF_PERICENTER":237.9446,"MEAN_ANOMALY":122.1289,"EPHEMERIS_TYPE":0,"CLASSIFICATION_TYPE":"U","NORAD_CAT_ID":59476,"ELEMENT_SET_NO":999,"REV_AT_EPOCH":10846,"BSTAR":-1.4158144e-5,"MEAN_MOTION_DOT":-6.52e-6,"MEAN_MOTION_DDOT":0}]
